[{"OBJECT_NAME":"STARLINK-36484","OBJECT_ID":"2026-005A","EPOCH":"2026-03-09T22:00:01.999584","MEAN_MOTION":15.28559164,"ECCENTRICITY":0.00020575,"INCLINATION":43.0009,"RA_OF_ASC_NODE":236.4215,"ARG_OF_PERICENTER":285.389,"MEAN_ANOMALY":107.322,"EPHEMERIS_TYPE":0,"CLASSIFICATION_TYPE":"U","NORAD_CAT_ID":67404,"ELEMENT_SET_NO":999,"REV_AT_EPOCH":575,"BSTAR":-0.051392169,"MEAN_MOTION_DOT":-0.01328663,"MEAN_MOTION_DDOT":0},{"OBJECT_NAME":"CZ-4 DEB","OBJECT_ID":"2006-046J","EPOCH":"2026-03-09T18:53:15.937728","MEAN_MOTION":15.02015872,"ECCENTRICITY":0.00905092,"INCLINATION":97.813,"RA_OF_ASC_NODE":3.4349,"ARG_OF_PERICENTER":91.2796,"MEAN_ANOMALY":323.9331,"EPHEMERIS_TYPE":0,"CLASSIFICATION_TYPE":"U","NORAD_CAT_ID":35376,"ELEMENT_SET_NO":999,"REV_AT_EPOCH":2538,"BSTAR":0.001704414,"MEAN_MOTION_DOT":0.00024412,"MEAN_MOTION_DDOT":0}]
